IRIDIUM 57              
1 25273U 98019B   25040.91734517  .00000821  00000+0  27750-3 0  9998
2 25273  86.3991 198.5247 0002067  93.7783 266.3650 14.35724440406524
IRIDIUM 63              
1 25286U 98021B   25040.77284872  .00000635  00000+0  21026-3 0  9996
2 25286  86.4023 135.5828 0001997  92.7183 267.4242 14.36371540405556
IRIDIUM 69              
1 25319U 98026A   25040.82755447  .00001054  00000+0  32353-3 0  9996
2 25319  86.4033 149.2186 0004372  90.1846 269.9855 14.40744656404723
IRIDIUM 71              
1 25320U 98026B   25040.78267101  .00000908  00000+0  27669-3 0  9999
2 25320  86.4026 143.9570 0003817 121.8768 238.2803 14.40964009405249
IRIDIUM 73              
1 25344U 98032C   25040.87815814  .00001156  00000+0  28472-3 0  9991
2 25344  86.4389 100.9065 0002888  88.3156 271.8380 14.51419623412097
IRIDIUM 82              
1 25467U 98051A   25040.88386711  .00033694  00000+0  11958-2 0  9990
2 25467  86.3751 171.9045 0100538  57.9997 303.0969 15.24134929404510
